COMMENT,ORIGINATOR,NORAD_CAT_ID,OBJECT_NAME,OBJECT_TYPE,CLASSIFICATION_TYPE,INTLDES,EPOCH,EPOCH_MICROSECONDS,MEAN_MOTION,ECCENTRICITY,INCLINATION,RA_OF_ASC_NODE,ARG_OF_PERICENTER,MEAN_ANOMALY,EPHEMERIS_TYPE,ELEMENT_SET_NO,REV_AT_EPOCH,BSTAR,MEAN_MOTION_DOT,MEAN_MOTION_DDOT,FILE,TLE_LINE0,TLE_LINE1,TLE_LINE2,OBJECT_ID,OBJECT_NUMBER,SEMIMAJOR_AXIS,PERIOD,APOGEE,PERIGEE,DECAYED,date
GENERATED VIA SPACETRACK.ORG API,18 SPCS,48893,SPACEBEE-106,PAYLOAD,U,21059Q,2023/3/3 9:00,253216,15.23786917,0.0008676,97.5781,197.4909,288.3365,71.6802,0,999,9323,0.0014112,0.00034052,0,3850163,0 SPACEBEE-106,1 48893U 21059Q   23062.37551219  .00034052  00000-0  14112-2 0  9990,2 48893  97.5781 197.4909 0008676 288.3365  71.6802 15.23786917 93232,2021-059Q,48893,6872.568,94.501,500.395,488.47,0,
GENERATED VIA SPACETRACK.ORG API,18 SPCS,48893,SPACEBEE-106,PAYLOAD,U,21059Q,2023/3/3 21:37,961344,15.23840096,0.0008295,97.5813,198.0297,280.7839,79.2463,0,999,9331,0.0016825,0.00040709,0,3850400,0 SPACEBEE-106,1 48893U 21059Q   23062.90084446  .00040709  00000-0  16825-2 0  9991,2 48893  97.5813 198.0297 0008295 280.7839  79.2463 15.23840096 93319,2021-059Q,48893,6872.408,94.498,499.973,488.572,0,
GENERATED VIA SPACETRACK.ORG API,18 SPCS,48893,SPACEBEE-106,PAYLOAD,U,21059Q,2023/3/4 3:55,788800,15.23863969,0.0008283,97.5814,198.2952,279.8978,80.1324,0,999,9335,0.0017961,0.0004351,0,3850570,0 SPACEBEE-106,1 48893U 21059Q   23063.16350450  .00043510  00000-0  17961-2 0  9996,2 48893  97.5814 198.2952 0008283 279.8978  80.1324 15.23863969 93355,2021-059Q,48893,6872.336,94.497,499.893,488.508,0,
GENERATED VIA SPACETRACK.ORG API,18 SPCS,48893,SPACEBEE-106,PAYLOAD,U,21059Q,2023/3/4 8:39,906240,15.23885361,0.0008292,97.5815,198.4943,279.2965,80.7334,0,999,9338,0.0019433,0.00047134,0,3851072,0 SPACEBEE-106,1 48893U 21059Q   23063.36049660  .00047134  00000-0  19433-2 0  9998,2 48893  97.5815 198.4943 0008292 279.2965  80.7334 15.23885361 93388,2021-059Q,48893,6872.272,94.495,499.835,488.438,0,
GENERATED VIA SPACETRACK.ORG API,18 SPCS,48893,SPACEBEE-106,PAYLOAD,U,21059Q,2023/3/4 14:57,126304,15.23907593,0.0008287,97.5815,198.76,278.3721,81.6576,0,999,9342,0.0019101,0.00046354,0,3851350,0 SPACEBEE-106,1 48893U 21059Q   23063.62314961  .00046354  00000-0  19101-2 0  9991,2 48893  97.5815 198.7600 0008287 278.3721  81.6576 15.23907593 93420,2021-059Q,48893,6872.205,94.494,499.765,488.375,0,
GENERATED VIA SPACETRACK.ORG API,18 SPCS,48893,SPACEBEE-106,PAYLOAD,U,21059Q,2023/3/5 6:42,696864,15.23964688,0.0008341,97.5816,199.424,277.1199,82.909,0,999,9352,0.0018909,0.00045963,0,3851743,0 SPACEBEE-106,1 48893U 21059Q   23064.27976501  .00045963  00000-0  18909-2 0  9997,2 48893  97.5816 199.4240 0008341 277.1199  82.9090 15.23964688 93520,2021-059Q,48893,6872.033,94.49,499.63,488.166,0,
GENERATED VIA SPACETRACK.ORG API,18 SPCS,48893,SPACEBEE-106,PAYLOAD,U,21059Q,2023/3/5 8:17,758880,15.23968461,0.0008356,97.5816,199.4905,276.8734,83.1552,0,999,9353,0.0018071,0.00043916,0,3851939,0 SPACEBEE-106,1 48893U 21059Q   23064.34542545  .00043916  00000-0  18071-2 0  9998,2 48893  97.5816 199.4905 0008356 276.8734  83.1552 15.23968461 93535,2021-059Q,48893,6872.022,94.49,499.629,488.144,0,
GENERATED VIA SPACETRACK.ORG API,18 SPCS,48893,SPACEBEE-106,PAYLOAD,U,21059Q,2023/3/5 22:28,97056,15.24022831,0.0008389,97.5817,200.088,274.882,85.1459,0,999,9362,0.0018594,0.0004527,0,3852256,0 SPACEBEE-106,1 48893U 21059Q   23064.93635529  .00045270  00000-0  18594-2 0  9993,2 48893  97.5817 200.0880 0008389 274.8820  85.1459 15.24022831 93628,2021-059Q,48893,6871.858,94.487,499.488,487.958,0,
GENERATED VIA SPACETRACK.ORG API,18 SPCS,48893,SPACEBEE-106,PAYLOAD,U,21059Q,2023/3/6 7:55,532928,15.2406555,0.0008404,97.5817,200.4862,272.9613,87.0662,0,999,9368,0.0020721,0.00050557,0,3852702,0 SPACEBEE-106,1 48893U 21059Q   23065.33029552  .00050557  00000-0  20721-2 0  9990,2 48893  97.5817 200.4862 0008404 272.9613  87.0662 15.24065550 93687,2021-059Q,48893,6871.73,94.484,499.37,487.82,0,
GENERATED VIA SPACETRACK.ORG API,18 SPCS,48893,SPACEBEE-106,PAYLOAD,U,21059Q,2023/3/6 14:13,70272,15.24085182,0.0008405,97.5818,200.7519,272.0849,87.9426,0,999,9372,0.0018025,0.00043957,0,3853141,0 SPACEBEE-106,1 48893U 21059Q   23065.59291748  .00043957  00000-0  18025-2 0  9996,2 48893  97.5818 200.7519 0008405 272.0849  87.9426 15.24085182 93728,2021-059Q,48893,6871.671,94.483,499.311,487.76,0,
GENERATED VIA SPACETRACK.ORG API,18 SPCS,48893,SPACEBEE-106,PAYLOAD,U,21059Q,2023/3/7 7:33,986464,15.24161392,0.0008399,97.5817,201.4825,269.4985,90.5289,0,999,9383,0.0020715,0.00050688,0,3854072,0 SPACEBEE-106,1 48893U 21059Q   23066.31510401  .00050688  00000-0  20715-2 0  9995,2 48893  97.5817 201.4825 0008399 269.4985  90.5289 15.24161392 93835,2021-059Q,48893,6871.442,94.478,499.078,487.535,0,
GENERATED VIA SPACETRACK.ORG API,18 SPCS,48893,SPACEBEE-106,PAYLOAD,U,21059Q,2023/3/8 2:28,107776,15.24233252,0.00083,97.5821,202.2789,266.2468,93.7819,0,999,9395,0.0018708,0.00045837,0,3854168,0 SPACEBEE-106,1 48893U 21059Q   23067.10290634  .00045837  00000-0  18708-2 0  9995,2 48893  97.5821 202.2789 0008300 266.2468  93.7819 15.24233252 93953,2021-059Q,48893,6871.226,94.474,498.794,487.388,0,
GENERATED VIA SPACETRACK.ORG API,18 SPCS,48893,SPACEBEE-106,PAYLOAD,U,21059Q,2023/3/8 19:48,988064,15.24315408,0.0008296,97.5823,203.0094,263.9009,96.1283,0,999,9406,0.0023715,0.00058364,0,3854889,0 SPACEBEE-106,1 48893U 21059Q   23067.82502301  .00058364  00000-0  23715-2 0  9994,2 48893  97.5823 203.0094 0008296 263.9009  96.1283 15.24315408 94061,2021-059Q,48893,6870.979,94.469,498.544,487.144,0,
GENERATED VIA SPACETRACK.ORG API,18 SPCS,48893,SPACEBEE-106,PAYLOAD,U,21059Q,2023/3/8 19:48,988064,15.24315408,0.0008296,97.5823,203.0094,263.9009,96.1283,0,999,9406,0.0023715,0.00058364,0,3855077,0 SPACEBEE-106,1 48893U 21059Q   23067.82502301  .00058364  00000-0  23715-2 0  9994,2 48893  97.5823 203.0094 0008296 263.9009  96.1283 15.24315408 94061,2021-059Q,48893,6870.979,94.469,498.544,487.144,0,
GENERATED VIA SPACETRACK.ORG API,18 SPCS,48893,SPACEBEE-106,PAYLOAD,U,21059Q,2023/3/9 19:25,882848,15.24409027,0.0008439,97.5825,204.0054,260.8669,99.1614,0,999,9421,0.0021995,0.00054248,0,3855627,0 SPACEBEE-106,1 48893U 21059Q   23068.80967457  .00054248  00000-0  21995-2 0  9995,2 48893  97.5825 204.0054 0008439 260.8669  99.1614 15.24409027 94216,2021-059Q,48893,6870.698,94.463,498.361,486.764,0,
GENERATED VIA SPACETRACK.ORG API,18 SPCS,48893,SPACEBEE-106,PAYLOAD,U,21059Q,2023/3/9 21:00,207360,15.24417477,0.0008477,97.5824,204.0718,260.6803,99.3475,0,999,9422,0.0021963,0.00054183,0,3855951,0 SPACEBEE-106,1 48893U 21059Q   23068.87531490  .00054183  00000-0  21963-2 0  9999,2 48893  97.5824 204.0718 0008477 260.6803  99.3475 15.24417477 94228,2021-059Q,48893,6870.672,94.462,498.361,486.713,0,
GENERATED VIA SPACETRACK.ORG API,18 SPCS,48893,SPACEBEE-106,PAYLOAD,U,21059Q,2023/3/10 20:38,818272,15.24517793,0.000845,97.5824,205.0679,258.4968,101.532,0,999,9437,0.0019418,0.00047999,0,3856975,0 SPACEBEE-106,1 48893U 21059Q   23069.85989373  .00047999  00000-0  19418-2 0  9994,2 48893  97.5824 205.0679 0008450 258.4968 101.5320 15.24517793 94376,2021-059Q,48893,6870.371,94.456,498.041,486.43,0,
GENERATED VIA SPACETRACK.ORG API,18 SPCS,48893,SPACEBEE-106,PAYLOAD,U,21059Q,2023/3/11 2:56,574944,15.24542064,0.0008456,97.5825,205.3332,257.3115,102.7177,0,999,9441,0.0018865,0.00046655,0,3857098,0 SPACEBEE-106,1 48893U 21059Q   23070.12243721  .00046655  00000-0  18865-2 0  9999,2 48893  97.5825 205.3332 0008456 257.3115 102.7177 15.24542064 94411,2021-059Q,48893,6870.298,94.455,497.972,486.353,0,
GENERATED VIA SPACETRACK.ORG API,18 SPCS,48893,SPACEBEE-106,PAYLOAD,U,21059Q,2023/3/11 7:39,144480,15.24565523,0.0008448,97.5826,205.5325,256.3062,103.7234,0,999,9444,0.0020278,0.00050214,0,3857581,0 SPACEBEE-106,1 48893U 21059Q   23070.31934195  .00050214  00000-0  20278-2 0  9999,2 48893  97.5826 205.5325 0008448 256.3062 103.7234 15.24565523 94440,2021-059Q,48893,6870.227,94.453,497.896,486.288,0,
GENERATED VIA SPACETRACK.ORG API,18 SPCS,48893,SPACEBEE-106,PAYLOAD,U,21059Q,2023/3/12 8:52,460640,15.24658973,0.0008356,97.5828,206.5962,252.8664,107.1658,0,999,9460,0.0018745,0.00046518,0,3858359,0 SPACEBEE-106,1 48893U 21059Q   23071.36946135  .00046518  00000-0  18745-2 0  9990,2 48893  97.5828 206.5962 0008356 252.8664 107.1658 15.24658973 94605,2021-059Q,48893,6869.947,94.447,497.552,486.071,0,
GENERATED VIA SPACETRACK.ORG API,18 SPCS,48893,SPACEBEE-106,PAYLOAD,U,21059Q,2023/3/12 8:52,460640,15.24658973,0.0008356,97.5828,206.5962,252.8664,107.1658,0,999,9460,0.0018745,0.00046518,0,3858534,0 SPACEBEE-106,1 48893U 21059Q   23071.36946135  .00046518  00000-0  18745-2 0  9990,2 48893  97.5828 206.5962 0008356 252.8664 107.1658 15.24658973 94605,2021-059Q,48893,6869.947,94.447,497.552,486.071,0,
GENERATED VIA SPACETRACK.ORG API,18 SPCS,48893,SPACEBEE-106,PAYLOAD,U,21059Q,2023/3/13 8:29,116736,15.2473894,0.0008378,97.5828,207.5927,249.4619,110.572,0,999,9475,0.0015277,0.00037945,0,3859173,0 SPACEBEE-106,1 48893U 21059Q   23072.35389024  .00037945  00000-0  15277-2 0  9999,2 48893  97.5828 207.5927 0008378 249.4619 110.5720 15.24738940 94750,2021-059Q,48893,6869.706,94.442,497.327,485.816,0,
GENERATED VIA SPACETRACK.ORG API,18 SPCS,48893,SPACEBEE-106,PAYLOAD,U,21059Q,2023/3/13 8:29,116736,15.2473894,0.0008378,97.5828,207.5927,249.4619,110.572,0,999,9475,0.0015277,0.00037945,0,3859425,0 SPACEBEE-106,1 48893U 21059Q   23072.35389024  .00037945  00000-0  15277-2 0  9999,2 48893  97.5828 207.5927 0008378 249.4619 110.5720 15.24738940 94750,2021-059Q,48893,6869.706,94.442,497.327,485.816,0,
